FENGYUN 1C DEB          
1 33737U 99025DJA 17345.58442407  .00000429  00000-0  31798-3 0  9998
2 33737  98.3956  24.6474 0139714 192.2371 322.1792 13.95391292479079
